{
  "type": "FeatureCollection",
  "features": [
    {
      "type": "Feature",
      "properties": {
        "norad_id": 46277,
        "name": "NEMO-HD",
        "group": "resource",
        "lat": -20.627036937002924,
        "lon": 63.210387182854824,
        "alt_km": 449.42448531932587,
        "timestamp": "2025-12-27T13:34:48.947536+00:00",
        "meta_object_name": "NEMO-HD",
        "meta_object_id": "2020-061F",
        "meta_epoch": "2025-12-27T05:52:34.474080",
        "meta_mean_motion": 15.40629984,
        "meta_eccentricity": 9.556e-05,
        "meta_inclination": 97.2188,
        "meta_ra_of_asc_node": 60.1587,
        "meta_arg_of_pericenter": 56.2948,
        "meta_mean_anomaly": 303.839,
        "meta_ephemeris_type": 0,
        "meta_classification_type": "U",
        "meta_norad_cat_id": 46277,
        "meta_element_set_no": 999,
        "meta_rev_at_epoch": 29547,
        "meta_bstar": 0.00031330577,
        "meta_mean_motion_dot": 0.00012685,
        "meta_mean_motion_ddot": 0,
        "tle_line1": "1 46277U 20061F   25361.24484345  .00012685  00000+0  31331-3 0  9991",
        "tle_line2": "2 46277  97.2188  60.1587 0000955  56.2948 303.8390 15.40629984295474"
      },
      "geometry": {
        "type": "Point",
        "coordinates": [
          63.210387182854824,
          -20.627036937002924
        ]
      }
    },
    {
      "type": "Feature",
      "properties": {
        "norad_id": 46984,
        "name": "SENTINEL-6A",
        "group": "resource",
        "lat": 52.90413737168808,
        "lon": 167.52907401232972,
        "alt_km": 1337.1295766020794,
        "timestamp": "2025-12-27T13:34:48.947546+00:00",
        "meta_object_name": "SENTINEL-6A",
        "meta_object_id": "2020-086A",
        "meta_epoch": "2025-12-27T02:01:15.305952",
        "meta_mean_motion": 12.80930827,
        "meta_eccentricity": 0.00077651,
        "meta_inclination": 66.0404,
        "meta_ra_of_asc_node": 132.5143,
        "meta_arg_of_pericenter": 269.4807,
        "meta_mean_anomaly": 90.5318,
        "meta_ephemeris_type": 0,
        "meta_classification_type": "U",
        "meta_norad_cat_id": 46984,
        "meta_element_set_no": 999,
        "meta_rev_at_epoch": 23828,
        "meta_bstar": 8.8344369e-05,
        "meta_mean_motion_dot": -4.1e-07,
        "meta_mean_motion_ddot": 0,
        "tle_line1": "1 46984U 20086A   25361.08420493 -.00000041  00000+0  88344-4 0  9990",
        "tle_line2": "2 46984  66.0404 132.5143 0007765 269.4807  90.5318 12.80930827238282"
      },
      "geometry": {
        "type": "Point",
        "coordinates": [
          167.52907401232972,
          52.90413737168808
        ]
      }
    },
    {
      "type": "Feature",
      "properties": {
        "norad_id": 48079,
        "name": "GAOFEN-12 02",
        "group": "resource",
        "lat": 44.17499936488444,
        "lon": -176.65932884578956,
        "alt_km": 622.3441732766441,
        "timestamp": "2025-12-27T13:34:48.947557+00:00",
        "meta_object_name": "GAOFEN-12 02",
        "meta_object_id": "2021-026A",
        "meta_epoch": "2025-12-27T06:29:04.812576",
        "meta_mean_motion": 14.80692578,
        "meta_eccentricity": 0.00035237,
        "meta_inclination": 97.9858,
        "meta_ra_of_asc_node": 355.207,
        "meta_arg_of_pericenter": 71.981,
        "meta_mean_anomaly": 288.1786,
        "meta_ephemeris_type": 0,
        "meta_classification_type": "U",
        "meta_norad_cat_id": 48079,
        "meta_element_set_no": 999,
        "meta_rev_at_epoch": 25632,
        "meta_bstar": 8.8277386e-05,
        "meta_mean_motion_dot": 6.26e-06,
        "meta_mean_motion_ddot": 0,
        "tle_line1": "1 48079U 21026A   25361.27019459  .00000626  00000+0  88277-4 0  9992",
        "tle_line2": "2 48079  97.9858 355.2070 0003523  71.9810 288.1786 14.80692578256325"
      },
      "geometry": {
        "type": "Point",
        "coordinates": [
          -176.65932884578956,
          44.17499936488444
        ]
      }
    },
    {
      "type": "Feature",
      "properties": {
        "norad_id": 48268,
        "name": "PLEIADES NEO 3",
        "group": "resource",
        "lat": -72.89455654916434,
        "lon": -133.00494935039688,
        "alt_km": 632.2878680586555,
        "timestamp": "2025-12-27T13:34:48.947567+00:00",
        "meta_object_name": "PLEIADES NEO 3",
        "meta_object_id": "2021-034A",
        "meta_epoch": "2025-12-27T07:34:18.005952",
        "meta_mean_motion": 14.81675248,
        "meta_eccentricity": 0.00013761,
        "meta_inclination": 97.8941,
        "meta_ra_of_asc_node": 73.5473,
        "meta_arg_of_pericenter": 88.7959,
        "meta_mean_anomaly": 271.3411,
        "meta_ephemeris_type": 0,
        "meta_classification_type": "U",
        "meta_norad_cat_id": 48268,
        "meta_element_set_no": 999,
        "meta_rev_at_epoch": 25220,
        "meta_bstar": 7.6728557e-05,
        "meta_mean_motion_dot": 5.52e-06,
        "meta_mean_motion_ddot": 0,
        "tle_line1": "1 48268U 21034A   25361.31548618  .00000552  00000+0  76729-4 0  9997",
        "tle_line2": "2 48268  97.8941  73.5473 0001376  88.7959 271.3411 14.81675248252206"
      },
      "geometry": {
        "type": "Point",
        "coordinates": [
          -133.00494935039688,
          -72.89455654916434
        ]
      }
    },
    {
      "type": "Feature",
      "properties": {
        "norad_id": 49070,
        "name": "PLEIADES NEO 4",
        "group": "resource",
        "lat": 72.87547138281735,
        "lon": 47.02535161370629,
        "alt_km": 616.1696086064039,
        "timestamp": "2025-12-27T13:34:48.947577+00:00",
        "meta_object_name": "PLEIADES NEO 4",
        "meta_object_id": "2021-073E",
        "meta_epoch": "2025-12-27T06:45:39.731040",
        "meta_mean_motion": 14.81671464,
        "meta_eccentricity": 0.00013094,
        "meta_inclination": 97.894,
        "meta_ra_of_asc_node": 73.5097,
        "meta_arg_of_pericenter": 89.4792,
        "meta_mean_anomaly": 270.6571,
        "meta_ephemeris_type": 0,
        "meta_classification_type": "U",
        "meta_norad_cat_id": 49070,
        "meta_element_set_no": 999,
        "meta_rev_at_epoch": 23591,
        "meta_bstar": -4.7421692e-05,
        "meta_mean_motion_dot": -4.25e-06,
        "meta_mean_motion_ddot": 0,
        "tle_line1": "1 49070U 21073E   25361.28170985 -.00000425  00000+0 -47422-4 0  9995",
        "tle_line2": "2 49070  97.8940  73.5097 0001309  89.4792 270.6571 14.81671464235912"
      },
      "geometry": {
        "type": "Point",
        "coordinates": [
          47.02535161370629,
          72.87547138281735
        ]
      }
    },
    {
      "type": "Feature",
      "properties": {
        "norad_id": 49260,
        "name": "LANDSAT 9",
        "group": "resource",
        "lat": -42.01427327722425,
        "lon": -118.0103788451567,
        "alt_km": 709.6100409962746,
        "timestamp": "2025-12-27T13:34:48.947586+00:00",
        "meta_object_name": "LANDSAT 9",
        "meta_object_id": "2021-088A",
        "meta_epoch": "2025-12-27T04:19:19.840800",
        "meta_mean_motion": 14.57112985,
        "meta_eccentricity": 0.00011037,
        "meta_inclination": 98.2075,
        "meta_ra_of_asc_node": 69.0804,
        "meta_arg_of_pericenter": 93.7467,
        "meta_mean_anomaly": 266.3858,
        "meta_ephemeris_type": 0,
        "meta_classification_type": "U",
        "meta_norad_cat_id": 49260,
        "meta_element_set_no": 999,
        "meta_rev_at_epoch": 22595,
        "meta_bstar": 0.00012601018,
        "meta_mean_motion_dot": 5.23e-06,
        "meta_mean_motion_ddot": 0,
        "tle_line1": "1 49260U 21088A   25361.18009075  .00000523  00000+0  12601-3 0  9999",
        "tle_line2": "2 49260  98.2075  69.0804 0001103  93.7467 266.3858 14.57112985225956"
      },
      "geometry": {
        "type": "Point",
        "coordinates": [
          -118.0103788451567,
          -42.01427327722425
        ]
      }
    },
    {
      "type": "Feature",
      "properties": {
        "norad_id": 51444,
        "name": "CSG-2",
        "group": "resource",
        "lat": 46.27577177977978,
        "lon": 10.992259319220148,
        "alt_km": 617.8132053803802,
        "timestamp": "2025-12-27T13:34:48.947597+00:00",
        "meta_object_name": "CSG-2",
        "meta_object_id": "2022-008A",
        "meta_epoch": "2025-12-27T06:30:03.701952",
        "meta_mean_motion": 14.82158751,
        "meta_eccentricity": 0.00014683,
        "meta_inclination": 97.8808,
        "meta_ra_of_asc_node": 182.3748,
        "meta_arg_of_pericenter": 85.6001,
        "meta_mean_anomaly": 274.538,
        "meta_ephemeris_type": 0,
        "meta_classification_type": "U",
        "meta_norad_cat_id": 51444,
        "meta_element_set_no": 999,
        "meta_rev_at_epoch": 21112,
        "meta_bstar": 9.7829098e-05,
        "meta_mean_motion_dot": 7.27e-06,
        "meta_mean_motion_ddot": 0,
        "tle_line1": "1 51444U 22008A   25361.27087618  .00000727  00000+0  97829-4 0  9990",
        "tle_line2": "2 51444  97.8808 182.3748 0001468  85.6001 274.5380 14.82158751211120"
      },
      "geometry": {
        "type": "Point",
        "coordinates": [
          10.992259319220148,
          46.27577177977978
        ]
      }
    }
  ]
}